start=new Date('2022-02-18T00:00:00.000Z').valueOf();
sats=[{"EPHEMERIS_TYPE":"0","RCS_SIZE":"LARGE","PERIOD":"95.591","SITE":"AFETR","SEMIMAJOR_AXIS":"6925.313","MEAN_ELEMENT_THEORY":"SGP4","OBJECT_NAME":"STARLINK-2252","PERIAPSIS":"546.067","EPOCH":"2022-02-17T21:40:40.958976","NORAD_CAT_ID":"48595","MEAN_ANOMALY":"282.2343","CLASSIFICATION_TYPE":"U","GP_ID":"196244988","APOAPSIS":"548.290","INCLINATION":"53.0539","MEAN_MOTION":"15.06411574","TLE_LINE1":"1 48595U 21041AU  22048.90325184  .00004846  00000-0  34389-3 0  9999","LAUNCH_DATE":"2021-05-15","ARG_OF_PERICENTER":"77.8826","OBJECT_ID":"2021-041AU","BSTAR":"0.00034389000000","MEAN_MOTION_DOT":"0.00004846","OBJECT_TYPE":"PAYLOAD","REV_AT_EPOCH":"4314","TLE_LINE2":"2 48595  53.0539 309.1373 0001605  77.8826 282.2343 15.06411574 43144","DECAY_DATE":null,"RA_OF_ASC_NODE":"309.1373","MEAN_MOTION_DDOT":"0.0000000000000","FILE":"3305402","ELEMENT_SET_NO":"999","TIME_SYSTEM":"UTC","ECCENTRICITY":"0.00016050","REF_FRAME":"TEME","COUNTRY_CODE":"US","CENTER_NAME":"EARTH"},{"BSTAR":"0.00030175000000","OBJECT_ID":"2021-041AV","ARG_OF_PERICENTER":"63.7796","MEAN_MOTION_DOT":"0.00004216","APOAPSIS":"548.393","INCLINATION":"53.0560","GP_ID":"196246240","LAUNCH_DATE":"2021-05-15","MEAN_MOTION":"15.06397989","TLE_LINE1":"1 48596U 21041AV  22048.92537402  .00004216  00000-0  30175-3 0  9990","PERIAPSIS":"546.047","EPOCH":"2022-02-17T22:12:32.315328","OBJECT_NAME":"STARLINK-2253","CLASSIFICATION_TYPE":"U","MEAN_ANOMALY":"296.3367","NORAD_CAT_ID":"48596","SITE":"AFETR","PERIOD":"95.592","RCS_SIZE":"LARGE","EPHEMERIS_TYPE":"0","SEMIMAJOR_AXIS":"6925.355","MEAN_ELEMENT_THEORY":"SGP4","REF_FRAME":"TEME","ECCENTRICITY":"0.00016940","CENTER_NAME":"EARTH","COUNTRY_CODE":"US","FILE":"3305402","ELEMENT_SET_NO":"999","TIME_SYSTEM":"UTC","MEAN_MOTION_DDOT":"0.0000000000000","RA_OF_ASC_NODE":"309.0357","OBJECT_TYPE":"PAYLOAD","DECAY_DATE":null,"TLE_LINE2":"2 48596  53.0560 309.0357 0001694  63.7796 296.3367 15.06397989 42333","REV_AT_EPOCH":"4233"},{"MEAN_MOTION_DOT":"0.00001788","ARG_OF_PERICENTER":"72.4622","OBJECT_ID":"2021-041AW","BSTAR":"0.00013890000000","LAUNCH_DATE":"2021-05-15","TLE_LINE1":"1 48597U 21041AW  22048.93273760  .00001788  00000-0  13890-3 0  9992","MEAN_MOTION":"15.06406890","GP_ID":"196246490","INCLINATION":"53.0556","APOAPSIS":"548.245","NORAD_CAT_ID":"48597","CLASSIFICATION_TYPE":"U","MEAN_ANOMALY":"287.6533","OBJECT_NAME":"STARLINK-2255","PERIAPSIS":"546.140","EPOCH":"2022-02-17T22:23:08.528640","MEAN_ELEMENT_THEORY":"SGP4","SEMIMAJOR_AXIS":"6925.327","PERIOD":"95.592","RCS_SIZE":"LARGE","EPHEMERIS_TYPE":"0","SITE":"AFETR","CENTER_NAME":"EARTH","COUNTRY_CODE":"US","REF_FRAME":"TEME","ECCENTRICITY":"0.00015200","TIME_SYSTEM":"UTC","ELEMENT_SET_NO":"999","FILE":"3305402","RA_OF_ASC_NODE":"309.0089","MEAN_MOTION_DDOT":"0.0000000000000","TLE_LINE2":"2 48597  53.0556 309.0089 0001520  72.4622 287.6533 15.06406890 43144","DECAY_DATE":null,"REV_AT_EPOCH":"4314","OBJECT_TYPE":"PAYLOAD"},{"TIME_SYSTEM":"UTC","ELEMENT_SET_NO":"999","FILE":"3305402","COUNTRY_CODE":"US","CENTER_NAME":"EARTH","ECCENTRICITY":"0.00015960","REF_FRAME":"TEME","TLE_LINE2":"2 48598  53.0552 308.9794 0001596  67.5040 292.6118 15.06394984 42339","DECAY_DATE":null,"REV_AT_EPOCH":"4233","OBJECT_TYPE":"PAYLOAD","MEAN_MOTION_DDOT":"0.0000000000000","RA_OF_ASC_NODE":"308.9794","TLE_LINE1":"1 48598U 21041AX  22048.93642797  .00002724  00000-0  20170-3 0  9993","MEAN_MOTION":"15.06394984","LAUNCH_DATE":"2021-05-15","APOAPSIS":"548.334","INCLINATION":"53.0552","GP_ID":"196244738","MEAN_MOTION_DOT":"0.00002724","ARG_OF_PERICENTER":"67.5040","OBJECT_ID":"2021-041AX","BSTAR":"0.00020170000000","SEMIMAJOR_AXIS":"6925.364","MEAN_ELEMENT_THEORY":"SGP4","SITE":"AFETR","EPHEMERIS_TYPE":"0","RCS_SIZE":"LARGE","PERIOD":"95.592","MEAN_ANOMALY":"292.6118","CLASSIFICATION_TYPE":"U","NORAD_CAT_ID":"48598","PERIAPSIS":"546.124","EPOCH":"2022-02-17T22:28:27.376608","OBJECT_NAME":"STARLINK-2256"},{"REF_FRAME":"TEME","ECCENTRICITY":"0.00015610","CENTER_NAME":"EARTH","COUNTRY_CODE":"US","ELEMENT_SET_NO":"999","FILE":"3305402","TIME_SYSTEM":"UTC","MEAN_MOTION_DDOT":"0.0000000000000","RA_OF_ASC_NODE":"284.1504","OBJECT_TYPE":"PAYLOAD","TLE_LINE2":"2 48599  53.0540 284.1504 0001561  69.8523 290.2633 15.06406730 43491","REV_AT_EPOCH":"4349","DECAY_DATE":null,"BSTAR":"0.00036073000000","ARG_OF_PERICENTER":"69.8523","OBJECT_ID":"2021-041AY","MEAN_MOTION_DOT":"0.00005097","APOAPSIS":"548.274","INCLINATION":"53.0540","GP_ID":"196245489","LAUNCH_DATE":"2021-05-15","TLE_LINE1":"1 48599U 21041AY  22048.89634666  .00005097  00000-0  36073-3 0  9990","MEAN_MOTION":"15.06406730","EPOCH":"2022-02-17T21:30:44.351424","PERIAPSIS":"546.112","OBJECT_NAME":"STARLINK-2274","CLASSIFICATION_TYPE":"U","MEAN_ANOMALY":"290.2633","NORAD_CAT_ID":"48599","SITE":"AFETR","PERIOD":"95.592","RCS_SIZE":"LARGE","EPHEMERIS_TYPE":"0","MEAN_ELEMENT_THEORY":"SGP4","SEMIMAJOR_AXIS":"6925.328"},{"GP_ID":"196245740","INCLINATION":"53.0539","APOAPSIS":"548.324","LAUNCH_DATE":"2021-05-15","MEAN_MOTION":"15.06407774","TLE_LINE1":"1 48600U 21041AZ  22048.93367314  .00007472  00000-0  51988-3 0  9992","ARG_OF_PERICENTER":"74.6332","OBJECT_ID":"2021-041AZ","BSTAR":"0.00051988000000","MEAN_MOTION_DOT":"0.00007472","PERIOD":"95.592","RCS_SIZE":"LARGE","EPHEMERIS_TYPE":"0","SITE":"AFETR","MEAN_ELEMENT_THEORY":"SGP4","SEMIMAJOR_AXIS":"6925.325","OBJECT_NAME":"STARLINK-2275","EPOCH":"2022-02-17T22:24:29.359296","PERIAPSIS":"546.055","NORAD_CAT_ID":"48600","CLASSIFICATION_TYPE":"U","MEAN_ANOMALY":"285.4838","ELEMENT_SET_NO":"999","FILE":"3305402","TIME_SYSTEM":"UTC","REF_FRAME":"TEME","ECCENTRICITY":"0.00016380","CENTER_NAME":"EARTH","COUNTRY_CODE":"US","OBJECT_TYPE":"PAYLOAD","DECAY_DATE":null,"TLE_LINE2":"2 48600  53.0539 298.9806 0001638  74.6332 285.4838 15.06407774 43286","REV_AT_EPOCH":"4328","RA_OF_ASC_NODE":"298.9806","MEAN_MOTION_DDOT":"0.0000000000000"},{"OBJECT_TYPE":"PAYLOAD","DECAY_DATE":null,"TLE_LINE2":"2 48602  53.0510 284.0079 0001813  67.2503 292.8677 15.06401426 43481","REV_AT_EPOCH":"4348","RA_OF_ASC_NODE":"284.0079","MEAN_MOTION_DDOT":"0.0000000000000","ELEMENT_SET_NO":"999","FILE":"3305402","TIME_SYSTEM":"UTC","REF_FRAME":"TEME","ECCENTRICITY":"0.00018130","CENTER_NAME":"EARTH","COUNTRY_CODE":"US","PERIOD":"95.592","RCS_SIZE":"LARGE","EPHEMERIS_TYPE":"0","SITE":"AFETR","SEMIMAJOR_AXIS":"6925.344","MEAN_ELEMENT_THEORY":"SGP4","OBJECT_NAME":"STARLINK-2713","EPOCH":"2022-02-17T22:18:31.253760","PERIAPSIS":"545.954","NORAD_CAT_ID":"48602","CLASSIFICATION_TYPE":"U","MEAN_ANOMALY":"292.8677","GP_ID":"196245990","APOAPSIS":"548.465","INCLINATION":"53.0510","LAUNCH_DATE":"2021-05-15","TLE_LINE1":"1 48602U 21041BB  22048.92952840  .00005951  00000-0  41806-3 0  9995","MEAN_MOTION":"15.06401426","ARG_OF_PERICENTER":"67.2503","BSTAR":"0.00041806000000","OBJECT_ID":"2021-041BB","MEAN_MOTION_DOT":"0.00005951"},{"TIME_SYSTEM":"UTC","FILE":"3305402","ELEMENT_SET_NO":"999","CENTER_NAME":"EARTH","COUNTRY_CODE":"US","REF_FRAME":"TEME","ECCENTRICITY":"0.00015660","REV_AT_EPOCH":"4356","TLE_LINE2":"2 48603  53.0528 279.1006 0001566  69.9060 290.2097 15.06406234 43567","DECAY_DATE":null,"OBJECT_TYPE":"PAYLOAD","MEAN_MOTION_DDOT":"0.0000000000000","RA_OF_ASC_NODE":"279.1006","LAUNCH_DATE":"2021-05-15","TLE_LINE1":"1 48603U 21041BC  22048.90876255  .00001996  00000-0  15281-3 0  9992","MEAN_MOTION":"15.06406234","INCLINATION":"53.0528","APOAPSIS":"548.279","GP_ID":"196245239","MEAN_MOTION_DOT":"0.00001996","OBJECT_ID":"2021-041BC","BSTAR":"0.00015281000000","ARG_OF_PERICENTER":"69.9060","SEMIMAJOR_AXIS":"6925.329","MEAN_ELEMENT_THEORY":"SGP4","SITE":"AFETR","PERIOD":"95.592","RCS_SIZE":"LARGE","EPHEMERIS_TYPE":"0","CLASSIFICATION_TYPE":"U","MEAN_ANOMALY":"290.2097","NORAD_CAT_ID":"48603","PERIAPSIS":"546.110","EPOCH":"2022-02-17T21:48:37.084320","OBJECT_NAME":"STARLINK-2714"},{"MEAN_MOTION_DOT":"0.00004893","ARG_OF_PERICENTER":"58.8461","OBJECT_ID":"2021-041BD","BSTAR":"0.00034705000000","MEAN_MOTION":"15.06407367","TLE_LINE1":"1 48604U 21041BD  22048.91062326  .00004893  00000-0  34705-3 0  9991","LAUNCH_DATE":"2021-05-15","INCLINATION":"53.0552","APOAPSIS":"548.307","GP_ID":"196244989","MEAN_ANOMALY":"301.2685","CLASSIFICATION_TYPE":"U","NORAD_CAT_ID":"48604","EPOCH":"2022-02-17T21:51:17.849664","PERIAPSIS":"546.075","OBJECT_NAME":"STARLINK-2757","SEMIMAJOR_AXIS":"6925.326","MEAN_ELEMENT_THEORY":"SGP4","SITE":"AFETR","RCS_SIZE":"LARGE","EPHEMERIS_TYPE":"0","PERIOD":"95.592","COUNTRY_CODE":"US","CENTER_NAME":"EARTH","ECCENTRICITY":"0.00016110","REF_FRAME":"TEME","TIME_SYSTEM":"UTC","ELEMENT_SET_NO":"999","FILE":"3305402","MEAN_MOTION_DDOT":"0.0000000000000","RA_OF_ASC_NODE":"309.0998","REV_AT_EPOCH":"4314","TLE_LINE2":"2 48604  53.0552 309.0998 0001611  58.8461 301.2685 15.06407367 43149","DECAY_DATE":null,"OBJECT_TYPE":"PAYLOAD"},{"MEAN_MOTION_DDOT":"0.0000000000000","RA_OF_ASC_NODE":"284.0162","OBJECT_TYPE":"PAYLOAD","TLE_LINE2":"2 48638  53.0547 284.0162 0001403  78.4726 281.6420 15.06393276 40593","DECAY_DATE":null,"REV_AT_EPOCH":"4059","REF_FRAME":"TEME","ECCENTRICITY":"0.00014030","CENTER_NAME":"EARTH","COUNTRY_CODE":"US","FILE":"3305402","ELEMENT_SET_NO":"999","TIME_SYSTEM":"UTC","EPOCH":"2022-02-17T22:17:08.735712","PERIAPSIS":"546.263","OBJECT_NAME":"STARLINK-2758","CLASSIFICATION_TYPE":"U","MEAN_ANOMALY":"281.6420","NORAD_CAT_ID":"48638","SITE":"AFETR","PERIOD":"95.593","RCS_SIZE":"LARGE","EPHEMERIS_TYPE":"0","MEAN_ELEMENT_THEORY":"SGP4","SEMIMAJOR_AXIS":"6925.369","OBJECT_ID":"2021-044A","ARG_OF_PERICENTER":"78.4726","BSTAR":"0.00043344000000","MEAN_MOTION_DOT":"0.00006179","APOAPSIS":"548.206","INCLINATION":"53.0547","GP_ID":"196246495","LAUNCH_DATE":"2021-05-26","MEAN_MOTION":"15.06393276","TLE_LINE1":"1 48638U 21044A   22048.92857333  .00006179  00000-0  43344-3 0  9990"}];
